NORAD_CAT_ID,OBJECT_NAME,OBJECT_TYPE,EPOCH,MEAN_MOTION,ECCENTRICITY,INCLINATION,RA_OF_ASC_NODE,ARG_OF_PERICENTER,MEAN_ANOMALY,BSTAR,MEAN_MOTION_DOT,MEAN_MOTION_DDOT,TLE_LINE0,TLE_LINE1,TLE_LINE2,SEMIMAJOR_AXIS,PERIOD,APOGEE,PERIGEE,DECAYED
55655.0,STARLINK-5267,PAYLOAD,2023-07-21 02:09:54,15.69934191,0.0003054,69.9967,78.8628,252.0561,108.0302,-5.9966e-06,-9.34e-06,0.0,0 STARLINK-5267,1 55655U 23021AD  23202.09021250 -.00000934  00000-0 -59966-5 0  9990,2 55655  69.9967  78.8628 0003054 252.0561 108.0302 15.69934191 24600,6737.222,91.724,361.145,357.03,0.0
55655.0,STARLINK-5267,PAYLOAD,2023-07-21 14:23:55,15.69923352,0.0003369,69.9979,77.4328,254.6444,105.438,2.5638e-05,2.871e-05,0.0,0 STARLINK-5267,1 55655U 23021AD  23202.59994649  .00002871  00000-0  25638-4 0  9994,2 55655  69.9979  77.4328 0003369 254.6444 105.4380 15.69923352 24684,6737.253,91.724,361.388,356.849,0.0
55655.0,STARLINK-5267,PAYLOAD,2023-07-23 22:58:45,15.69918897,0.0003455,69.9966,70.8028,264.8954,95.1848,1.6674e-05,1.792e-05,0.0,0 STARLINK-5267,1 55655U 23021AD  23204.95747334  .00001792  00000-0  16674-4 0  9994,2 55655  69.9966  70.8028 0003455 264.8954  95.1848 15.69918897 25367,6737.266,91.724,361.459,356.803,0.0
55655.0,STARLINK-5267,PAYLOAD,2023-07-24 14:16:16,15.69922622,0.0003401,69.9981,69.0129,254.925,105.1569,1.4517e-05,1.533e-05,0.0,0 STARLINK-5267,1 55655U 23021AD  23205.59463838  .00001533  00000-0  14517-4 0  9996,2 55655  69.9981  69.0129 0003401 254.9250 105.1569 15.69922622 25460,6737.255,91.724,361.412,356.829,0.0
55655.0,STARLINK-5267,PAYLOAD,2023-07-25 23:54:49,15.69918994,0.0003379,69.9978,65.0702,267.7765,92.3044,3.6336e-07,-1.69e-06,0.0,0 STARLINK-5267,1 55655U 23021AD  23206.99641066 -.00000169  00000-0  36336-6 0  9992,2 55655  69.9978  65.0702 0003379 267.7765  92.3044 15.69918994 25682,6737.266,91.724,361.407,356.854,0.0
55655.0,STARLINK-5267,PAYLOAD,2023-07-26 21:19:26,15.69863994,0.0005799,69.9969,62.5608,244.6725,115.387,-5.11e-05,-6.343e-05,0.0,0 STARLINK-5267,1 55655U 23021AD  23207.88850283 -.00006343  00000-0 -51100-4 0  9999,2 55655  69.9969  62.5608 0005799 244.6725 115.3870 15.69863994 25825,6737.423,91.728,363.195,355.381,0.0
55655.0,STARLINK-5267,PAYLOAD,2023-07-27 00:22:09,15.70583979,0.0009917,69.997,62.2,283.6888,76.3204,0.00077219,0.0009654,0.0,0 STARLINK-5267,1 55655U 23021AD  23208.01538926  .00096540  00000-0  77219-3 0  9996,2 55655  69.9970  62.2000 0009917 283.6888  76.3204 15.70583979 25538,6735.364,91.686,363.908,350.549,0.0
55655.0,STARLINK-5267,PAYLOAD,2023-07-27 14:00:01,15.67338595,0.0003553,70.0,60.6155,265.031,54.9435,-0.0097102,-0.00953893,0.0,0 STARLINK-5267,1 55655U 23021AD  23208.58334491 -.00953893  00000-0 -97102-2 0  9996,2 55655  70.0000  60.6155 0003553 265.0310  54.9435 15.67338595  2555,6744.658,91.875,368.92,364.127,0.0
55655.0,STARLINK-5267,PAYLOAD,2023-07-27 22:00:00,15.66632338,0.0003443,70.0001,59.6823,273.177,126.6192,-0.0090767,-0.00861039,0.0,0 STARLINK-5267,1 55655U 23021AD  23208.91667824 -.00861039  00000-0 -90767-2 0  9992,2 55655  70.0001  59.6823 0003443 273.1770 126.6192 15.66632338  2608,6746.685,91.917,370.873,366.227,0.0
55655.0,STARLINK-5267,PAYLOAD,2023-07-28 14:00:01,15.65380454,0.0003295,70.0001,57.8192,264.4526,292.58,-0.010486,-0.00951769,0.0,0 STARLINK-5267,1 55655U 23021AD  23209.58334491 -.00951769  00000-0 -10486-1 0  9996,2 55655  70.0001  57.8192 0003295 264.4526 292.5800 15.65380454 25785,6750.282,91.99,374.371,369.923,0.0
55655.0,STARLINK-5267,PAYLOAD,2023-07-29 14:00:01,15.63419464,0.0003437,69.9997,55.0305,267.0866,160.0297,-0.01126,-0.00945966,0.0,0 STARLINK-5267,1 55655U 23021AD  23210.58335648 -.00945966  00000-0 -11260-1 0  9996,2 55655  69.9997  55.0305 0003437 267.0866 160.0297 15.63419464 25945,6755.925,92.106,380.112,375.468,0.0
55655.0,STARLINK-5267,PAYLOAD,2023-07-30 14:00:01,15.61465908,0.0003501,69.9995,52.25,265.8676,24.1586,-0.01221,-0.00949905,0.0,0 STARLINK-5267,1 55655U 23021AD  23211.58334491 -.00949905  00000-0 -12210-1 0  9995,2 55655  69.9995  52.2500 0003501 265.8676  24.1586 15.61465908 26096,6761.559,92.221,385.791,381.057,0.0
55655.0,STARLINK-5267,PAYLOAD,2023-07-31 14:00:01,15.59503746,0.0003508,69.9993,49.4774,267.4426,238.5216,-0.013026,-0.00940558,0.0,0 STARLINK-5267,1 55655U 23021AD  23212.58334491 -.00940558  00000-0 -13026-1 0  9997,2 55655  69.9993  49.4774 0003508 267.4426 238.5216 15.59503746 26252,6767.229,92.337,391.468,386.72,0.0
55655.0,STARLINK-5267,PAYLOAD,2023-08-01 22:00:00,15.56843279,0.0003633,69.9987,45.7928,275.8325,147.1092,-0.013044,-0.008592,0.0,0 STARLINK-5267,1 55655U 23021AD  23213.91667824 -.00859200  00000-0 -13044-1 0  9997,2 55655  69.9987  45.7928 0003633 275.8325 147.1092 15.56843279 26460,6774.937,92.495,399.263,394.34,0.0
55655.0,STARLINK-5267,PAYLOAD,2023-08-02 14:00:01,15.55600383,0.0003376,69.9991,43.9563,268.3612,288.3505,-0.015488,-0.00963152,0.0,0 STARLINK-5267,1 55655U 23021AD  23214.58334491 -.00963152  00000-0 -15488-1 0  9998,2 55655  69.9991  43.9563 0003376 268.3612 288.3505 15.55600383 26564,6778.545,92.569,402.698,398.122,0.0
55655.0,STARLINK-5267,PAYLOAD,2023-08-03 06:00:00,15.54234874,0.0003419,69.9987,42.1229,271.0542,56.3393,-0.014707,-0.00877757,0.0,0 STARLINK-5267,1 55655U 23021AD  23215.25001157 -.00877757  00000-0 -14707-1 0  9991,2 55655  69.9987  42.1229 0003419 271.0542  56.3393 15.54234874 26666,6782.515,92.65,406.699,402.061,0.0
55655.0,STARLINK-5267,PAYLOAD,2023-08-03 22:00:00,15.5294275,0.0003319,69.9993,40.2934,277.3165,177.5971,-0.015496,-0.00881848,0.0,0 STARLINK-5267,1 55655U 23021AD  23215.91667824 -.00881848  00000-0 -15496-1 0  9995,2 55655  69.9993  40.2934 0003319 277.3165 177.5971 15.52942750 26771,6786.276,92.727,410.394,405.889,0.0
55655.0,STARLINK-5267,PAYLOAD,2023-08-04 22:00:00,15.51193911,0.0003553,69.9994,37.5565,275.8631,4.5382,0.00094406,0.00055621,0.0,0 STARLINK-5267,1 55655U 23021AD  23216.91667824  .00055621  00000-0  94406-3 0  9996,2 55655  69.9994  37.5565 0003553 275.8631   4.5382 15.51193911 26920,6791.376,92.832,415.654,410.828,0.0
55655.0,STARLINK-5267,PAYLOAD,2023-08-05 14:00:01,15.51263212,0.0003672,70.0003,35.734,269.5704,132.629,-0.0010176,-0.00059577,0.0,0 STARLINK-5267,1 55655U 23021AD  23217.58334491 -.00059577  00000-0 -10176-2 0  9998,2 55655  70.0003  35.7340 0003672 269.5704 132.6290 15.51263212 27034,6791.174,92.828,415.533,410.545,0.0
55655.0,STARLINK-5267,PAYLOAD,2023-08-06 06:00:00,15.51221415,0.0003746,70.0003,33.911,272.4139,251.6298,-4.2221e-05,-2.644e-05,0.0,0 STARLINK-5267,1 55655U 23021AD  23218.25001157 -.00002644  00000-0 -42221-4 0  9994,2 55655  70.0003  33.9110 0003746 272.4139 251.6298 15.51221415 27136,6791.296,92.83,415.705,410.617,0.0
55655.0,STARLINK-5267,PAYLOAD,2023-08-06 14:00:01,15.51422678,0.0003576,70.0008,32.9998,269.3227,315.5783,-0.010279,-0.00566721,0.0,0 STARLINK-5267,1 55655U 23021AD  23218.58334491 -.00566721  00000-0 -10279-1 0  9996,2 55655  70.0008  32.9998 0003576 269.3227 315.5783 15.51422678 27186,6790.708,92.818,415.002,410.145,0.0
55655.0,STARLINK-5267,PAYLOAD,2023-08-06 22:00:00,15.51009387,0.0003372,70.0008,32.0885,273.2819,12.5474,-0.016742,-0.0088805,0.0,0 STARLINK-5267,1 55655U 23021AD  23218.91667824 -.00888050  00000-0 -16742-1 0  9995,2 55655  70.0008  32.0885 0003372 273.2819  12.5474 15.51009387 27232,6791.915,92.843,416.07,411.489,0.0
55655.0,STARLINK-5267,PAYLOAD,2023-08-07 14:00:01,15.49739497,0.0003485,70.0007,30.2685,268.1079,137.4654,-0.018992,-0.00969602,0.0,0 STARLINK-5267,1 55655U 23021AD  23219.58334491 -.00969602  00000-0 -18992-1 0  9992,2 55655  70.0007  30.2685 0003485 268.1079 137.4654 15.49739497 27343,6795.625,92.919,419.858,415.121,0.0
55655.0,STARLINK-5267,PAYLOAD,2023-08-08 06:00:00,15.48366109,0.0003415,70.0005,28.4516,269.9435,252.2688,-0.017338,-0.00841696,0.0,0 STARLINK-5267,1 55655U 23021AD  23220.25001157 -.00841696  00000-0 -17338-1 0  9993,2 55655  70.0005  28.4516 0003415 269.9435 252.2688 15.48366109 27440,6799.642,93.001,423.829,419.185,0.0
55655.0,STARLINK-5267,PAYLOAD,2023-08-08 22:00:00,15.47084772,0.0003659,70.0005,26.6386,272.8439,2.8497,-0.018948,-0.00876341,0.0,0 STARLINK-5267,1 55655U 23021AD  23220.91667824 -.00876341  00000-0 -18948-1 0  9998,2 55655  70.0005  26.6386 0003659 272.8439   2.8497 15.47084772 27542,6803.396,93.078,427.751,422.772,0.0
55655.0,STARLINK-5267,PAYLOAD,2023-08-09 14:00:01,15.45817267,0.0003702,70.0006,24.8288,269.6929,116.3539,-0.02151,-0.00958594,0.0,0 STARLINK-5267,1 55655U 23021AD  23221.58334491 -.00958594  00000-0 -21510-1 0  9993,2 55655  70.0006  24.8288 0003702 269.6929 116.3539 15.45817267 27652,6807.115,93.155,431.5,426.46,0.0
55655.0,STARLINK-5267,PAYLOAD,2023-08-10 06:00:00,15.44451091,0.0003424,70.0002,23.0227,269.8517,223.4422,-0.019745,-0.00837505,0.0,0 STARLINK-5267,1 55655U 23021AD  23222.25001157 -.00837505  00000-0 -19745-1 0  9993,2 55655  70.0002  23.0227 0003424 269.8517 223.4422 15.44451091 27758,6811.128,93.237,435.326,430.661,0.0
55655.0,STARLINK-5267,PAYLOAD,2023-08-10 14:00:01,15.43855619,0.0003446,70.0003,22.121,270.1024,275.6203,-0.022884,-0.00953968,0.0,0 STARLINK-5267,1 55655U 23021AD  23222.58334491 -.00953968  00000-0 -22884-1 0  9999,2 55655  70.0003  22.1210 0003446 270.1024 275.6203 15.43855619 27808,6812.88,93.273,437.092,432.397,0.0
55655.0,STARLINK-5267,PAYLOAD,2023-08-11 06:00:00,15.42491093,0.0003434,70.0001,20.3205,268.4542,19.821,-0.020917,-0.00830812,0.0,0 STARLINK-5267,1 55655U 23021AD  23223.25001157 -.00830812  00000-0 -20917-1 0  9991,2 55655  70.0001  20.3205 0003434 268.4542  19.8210 15.42491093 27900,6816.897,93.355,441.103,436.421,0.0
55655.0,STARLINK-5267,PAYLOAD,2023-08-11 14:00:01,15.41896107,0.0003519,70.0003,19.4215,270.4291,67.9289,-0.024356,-0.0095068,0.0,0 STARLINK-5267,1 55655U 23021AD  23223.58334491 -.00950680  00000-0 -24356-1 0  9994,2 55655  70.0003  19.4215 0003519 270.4291  67.9289 15.41896107 27960,6818.651,93.392,442.915,438.116,0.0
